#cP2026  5  1  0  0  0.00000000       3 ORBIT IGb14 HLM  IGS
## 1566 172800.00000000   900.00000000 58849 0.0000000000000
+    3   G01G02G03
++        3  0  0  0  0  0  0  0  0  0  0  0  0  0  0  0  0
%c G  cc GPS ccc cccc cccc cccc cccc ccccc ccccc ccccc ccccc
%c cc cc ccc ccc cccc cccc cccc cccc ccccc ccccc ccccc ccccc
%f  1.2500000  1.025000000  0.00000000000  0.000000000000000
%f  0.0000000  0.000000000  0.00000000000  0.000000000000000
%i    0    0    0    0      0      0      0      0         0
%i    0    0    0    0      0      0      0      0         0
/* 2026-05-01 00:00:00
P G01  15000.000000  10000.000000   5000.000000    100.000000
P G02 -10000.000000  15000.000000   8000.000000    100.000000
P G03   5000.000000 -12000.000000  13000.000000    100.000000
*  2026  5  1  1  0  0.00000000
P G01  14000.000000  11000.000000   6000.000000    100.000000
P G02  -9000.000000  16000.000000   9000.000000    100.000000
P G03   6000.000000 -11000.000000  14000.000000    100.000000
*  2026  5  1  2  0  0.00000000
P G01  12000.000000  13000.000000   8000.000000    100.000000
P G02  -7000.000000  17000.000000  11000.000000    100.000000
P G03   8000.000000  -9000.000000  15000.000000    100.000000
*  2026  5  1  3  0  0.00000000
P G01  10000.000000  15000.000000  10000.000000    100.000000
P G02  -5000.000000  18000.000000  13000.000000    100.000000
P G03  10000.000000  -7000.000000  16000.000000    100.000000
*  2026  5  1  4  0  0.00000000
P G01   8000.000000  17000.000000  12000.000000    100.000000
P G02  -3000.000000  19000.000000  15000.000000    100.000000
P G03  12000.000000  -5000.000000  17000.000000    100.000000
*  2026  5  1  5  0  0.00000000
P G01   6000.000000  19000.000000  14000.000000    100.000000
P G02  -1000.000000  20000.000000  17000.000000    100.000000
P G03  14000.000000  -3000.000000  18000.000000    100.000000
*  2026  5  1  6  0  0.00000000
P G01   4000.000000  21000.000000  16000.000000    100.000000
P G02   1000.000000  21000.000000  19000.000000    100.000000
P G03  16000.000000  -1000.000000  19000.000000    100.000000
EOF
